{"type": "FeatureCollection", "features": [ {"type": "Feature", "properties": {"norad_id": 38953, "name": "BEIDOU-2 G6 (C02)", "group": "beidou", "lat": 2.5794016925005447, "lon": -145.94651453693228, "alt_km": 35813.133598515094, "timestamp": "2025-12-01T03:58:49.201619+00:00", "meta": {"OBJECT_NAME": "BEIDOU-2 G6 (C02)", "OBJECT_ID": "2012-059A", "EPOCH": "2025-11-30T21:05:28.859136", "MEAN_MOTION": 1.00271306, "ECCENTRICITY": 0.0007241, "INCLINATION": 3.9163, "RA_OF_ASC_NODE": 75.6183, "ARG_OF_PERICENTER": 291.4402, "MEAN_ANOMALY": 103.3729, "EPHEMERIS_TYPE": 0, "CLASSIFICATION_TYPE": "U", "NORAD_CAT_ID": 38953, "ELEMENT_SET_NO": 999, "REV_AT_EPOCH": 4792, "BSTAR": 0, "MEAN_MOTION_DOT": -1.54e-06, "MEAN_MOTION_DDOT": 0, "GROUP": "beidou"}, "tle": {"line1": "1 38953U 12059A   25334.87880624 -.00000154  00000+0  00000+0 0  9994", "line2": "2 38953   3.9163  75.6183 0007241 291.4402 103.3729  1.00271306 47925"}}, "geometry": {"type": "Point", "coordinates": [-145.94651453693228, 2.5794016925005447]}}, {"type": "Feature", "properties": {"norad_id": 40748, "name": "BEIDOU-3S M2S (C58)", "group": "beidou", "lat": -12.240484857334463, "lon": -59.87917749785311, "alt_km": 21522.7501964121, "timestamp": "2025-12-01T03:58:49.201661+00:00", "meta": {"OBJECT_NAME": "BEIDOU-3S M2S (C58)", "OBJECT_ID": "2015-037A", "EPOCH": "2025-11-30T02:44:35.051712", "MEAN_MOTION": 1.86229103, "ECCENTRICITY": 0.0012501, "INCLINATION": 55.0501, "RA_OF_ASC_NODE": 308.8973, "ARG_OF_PERICENTER": 266.9712, "MEAN_ANOMALY": 92.8835, "EPHEMERIS_TYPE": 0, "CLASSIFICATION_TYPE": "U", "NORAD_CAT_ID": 40748, "ELEMENT_SET_NO": 999, "REV_AT_EPOCH": 7041, "BSTAR": 0, "MEAN_MOTION_DOT": -5e-07, "MEAN_MOTION_DDOT": 0, "GROUP": "beidou"}, "tle": {"line1": "1 40748U 15037A   25334.11429458 -.00000050  00000+0  00000+0 0  9994", "line2": "2 40748  55.0501 308.8973 0012501 266.9712  92.8835  1.86229103 70410"}}, "geometry": {"type": "Point", "coordinates": [-59.87917749785311, -12.240484857334463]}}, {"type": "Feature", "properties": {"norad_id": 40749, "name": "BEIDOU-3S M1S (C57)", "group": "beidou", "lat": -7.923691886684399, "lon": 134.4208469387106, "alt_km": 21535.845059004478, "timestamp": "2025-12-01T03:58:49.201679+00:00", "meta": {"OBJECT_NAME": "BEIDOU-3S M1S (C57)", "OBJECT_ID": "2015-037B", "EPOCH": "2025-11-26T01:13:29.678016", "MEAN_MOTION": 1.8625392, "ECCENTRICITY": 0.00032681, "INCLINATION": 55.0504, "RA_OF_ASC_NODE": 309.0266, "ARG_OF_PERICENTER": 354.4635, "MEAN_ANOMALY": 5.5327, "EPHEMERIS_TYPE": 0, "CLASSIFICATION_TYPE": "U", "NORAD_CAT_ID": 40749, "ELEMENT_SET_NO": 999, "REV_AT_EPOCH": 7034, "BSTAR": 0, "MEAN_MOTION_DOT": -4e-07, "MEAN_MOTION_DDOT": 0, "GROUP": "beidou"}, "tle": {"line1": "1 40749U 15037B   25330.05103794 -.00000040  00000+0  00000+0 0  9995", "line2": "2 40749  55.0504 309.0266 0003268 354.4635   5.5327  1.86253920 70342"}}, "geometry": {"type": "Point", "coordinates": [134.4208469387106, -7.923691886684399]}}, {"type": "Feature", "properties": {"norad_id": 40938, "name": "BEIDOU-3S IGSO-2S (C56)", "group": "beidou", "lat": -25.566145826872205, "lon": -122.9366943140459, "alt_km": 35976.67951849425, "timestamp": "2025-12-01T03:58:49.201706+00:00", "meta": {"OBJECT_NAME": "BEIDOU-3S IGSO-2S (C56)", "OBJECT_ID": "2015-053A", "EPOCH": "2025-11-30T14:22:32.938176", "MEAN_MOTION": 1.00272475, "ECCENTRICITY": 0.0061056, "INCLINATION": 49.5325, "RA_OF_ASC_NODE": 261.1514, "ARG_OF_PERICENTER": 188.8099, "MEAN_ANOMALY": 291.5463, "EPHEMERIS_TYPE": 0, "CLASSIFICATION_TYPE": "U", "NORAD_CAT_ID": 40938, "ELEMENT_SET_NO": 999, "REV_AT_EPOCH": 3736, "BSTAR": 0, "MEAN_MOTION_DOT": -1.61e-06, "MEAN_MOTION_DDOT": 0, "GROUP": "beidou"}, "tle": {"line1": "1 40938U 15053A   25334.59899234 -.00000161  00000+0  00000+0 0  9991", "line2": "2 40938  49.5325 261.1514 0061056 188.8099 291.5463  1.00272475 37362"}}, "geometry": {"type": "Point", "coordinates": [-122.9366943140459, -25.566145826872205]}}, {"type": "Feature", "properties": {"norad_id": 41434, "name": "BEIDOU-2 IGSO-6 (C13)", "group": "beidou", "lat": -1.273409445502375, "lon": -139.22124198753028, "alt_km": 35627.92432243263, "timestamp": "2025-12-01T03:58:49.201736+00:00", "meta": {"OBJECT_NAME": "BEIDOU-2 IGSO-6 (C13)", "OBJECT_ID": "2016-021A", "EPOCH": "2025-11-29T16:01:16.721760", "MEAN_MOTION": 1.00257137, "ECCENTRICITY": 0.00590915, "INCLINATION": 59.9454, "RA_OF_ASC_NODE": 40.0323, "ARG_OF_PERICENTER": 231.0312, "MEAN_ANOMALY": 130.2075, "EPHEMERIS_TYPE": 0, "CLASSIFICATION_TYPE": "U", "NORAD_CAT_ID": 41434, "ELEMENT_SET_NO": 999, "REV_AT_EPOCH": 3548, "BSTAR": 0, "MEAN_MOTION_DOT": -1.5e-06, "MEAN_MOTION_DDOT": 0, "GROUP": "beidou"}, "tle": {"line1": "1 41434U 16021A   25333.66755465 -.00000150  00000+0  00000+0 0  9991", "line2": "2 41434  59.9454  40.0323 0059091 231.0312 130.2075  1.00257137 35486"}}, "geometry": {"type": "Point", "coordinates": [-139.22124198753028, -1.273409445502375]}}, {"type": "Feature", "properties": {"norad_id": 41586, "name": "BEIDOU-2 G7 (C03)", "group": "beidou", "lat": 0.19559916838984745, "lon": -119.5377734479201, "alt_km": 35804.41224467279, "timestamp": "2025-12-01T03:58:49.201751+00:00", "meta": {"OBJECT_NAME": "BEIDOU-2 G7 (C03)", "OBJECT_ID": "2016-037A", "EPOCH": "2025-11-30T21:07:21.929088", "MEAN_MOTION": 1.00273141, "ECCENTRICITY": 0.0004541, "INCLINATION": 1.7254, "RA_OF_ASC_NODE": 67.6531, "ARG_OF_PERICENTER": 6.4845, "MEAN_ANOMALY": 63.1901, "EPHEMERIS_TYPE": 0, "CLASSIFICATION_TYPE": "U", "NORAD_CAT_ID": 41586, "ELEMENT_SET_NO": 999, "REV_AT_EPOCH": 490, "BSTAR": 0, "MEAN_MOTION_DOT": -3.32e-06, "MEAN_MOTION_DDOT": 0, "GROUP": "beidou"}, "tle": {"line1": "1 41586U 16037A   25334.88011492 -.00000332  00000+0  00000+0 0  9998", "line2": "2 41586   1.7254  67.6531 0004541   6.4845  63.1901  1.00273141  4906"}}, "geometry": {"type": "Point", "coordinates": [-119.5377734479201, 0.19559916838984745]}}, {"type": "Feature", "properties": {"norad_id": 43001, "name": "BEIDOU-3 M1 (C19)", "group": "beidou", "lat": 49.92281217468457, "lon": -162.16193987557278, "alt_km": 21546.049128229148, "timestamp": "2025-12-01T03:58:49.201782+00:00", "meta": {"OBJECT_NAME": "BEIDOU-3 M1 (C19)", "OBJECT_ID": "2017-069A", "EPOCH": "2025-11-30T11:01:49.166976", "MEAN_MOTION": 1.86230859, "ECCENTRICITY": 0.00086901, "INCLINATION": 56.5161, "RA_OF_ASC_NODE": 69.6405, "ARG_OF_PERICENTER": 303.5198, "MEAN_ANOMALY": 56.4027, "EPHEMERIS_TYPE": 0, "CLASSIFICATION_TYPE": "U", "NORAD_CAT_ID": 43001, "ELEMENT_SET_NO": 999, "REV_AT_EPOCH": 5490, "BSTAR": 0, "MEAN_MOTION_DOT": -3.3e-07, "MEAN_MOTION_DDOT": 0, "GROUP": "beidou"}, "tle": {"line1": "1 43001U 17069A   25334.45959684 -.00000033  00000+0  00000+0 0  9993", "line2": "2 43001  56.5161  69.6405 0008690 303.5198  56.4027  1.86230859 54900"}}, "geometry": {"type": "Point", "coordinates": [-162.16193987557278, 49.92281217468457]}}, {"type": "Feature", "properties": {"norad_id": 43002, "name": "BEIDOU-3 M2 (C20)", "group": "beidou", "lat": 20.76270653593711, "lon": -124.8633921935026, "alt_km": 21542.644818409997, "timestamp": "2025-12-01T03:58:49.201794+00:00", "meta": {"OBJECT_NAME": "BEIDOU-3 M2 (C20)", "OBJECT_ID": "2017-069B", "EPOCH": "2025-11-29T20:39:49.777920", "MEAN_MOTION": 1.86230637, "ECCENTRICITY": 0.00060867, "INCLINATION": 56.5152, "RA_OF_ASC_NODE": 69.6958, "ARG_OF_PERICENTER": 333.0369, "MEAN_ANOMALY": 26.9387, "EPHEMERIS_TYPE": 0, "CLASSIFICATION_TYPE": "U", "NORAD_CAT_ID": 43002, "ELEMENT_SET_NO": 999, "REV_AT_EPOCH": 5488, "BSTAR": 0, "MEAN_MOTION_DOT": -2.9e-07, "MEAN_MOTION_DDOT": 0, "GROUP": "beidou"}, "tle": {"line1": "1 43002U 17069B   25333.86099280 -.00000029  00000+0  00000+0 0  9990", "line2": "2 43002  56.5152  69.6958 0006086 333.0369  26.9387  1.86230637 54881"}}, "geometry": {"type": "Point", "coordinates": [-124.8633921935026, 20.76270653593711]}}, {"type": "Feature", "properties": {"norad_id": 43107, "name": "BEIDOU-3 M7 (C27)", "group": "beidou", "lat": -26.31568793424781, "lon": -71.45774198234706, "alt_km": 21533.130768244206, "timestamp": "2025-12-01T03:58:49.201810+00:00", "meta": {"OBJECT_NAME": "BEIDOU-3 M7 (C27)", "OBJECT_ID": "2018-003A", "EPOCH": "2025-11-30T03:23:17.297952", "MEAN_MOTION": 1.86232295, "ECCENTRICITY": 0.00025503, "INCLINATION": 54.508, "RA_OF_ASC_NODE": 309.2532, "ARG_OF_PERICENTER": 71.4295, "MEAN_ANOMALY": 288.5965, "EPHEMERIS_TYPE": 0, "CLASSIFICATION_TYPE": "U", "NORAD_CAT_ID": 43107, "ELEMENT_SET_NO": 999, "REV_AT_EPOCH": 5364, "BSTAR": 0, "MEAN_MOTION_DOT": -5.1e-07, "MEAN_MOTION_DDOT": 0, "GROUP": "beidou"}, "tle": {"line1": "1 43107U 18003A   25334.14117243 -.00000051  00000+0  00000+0 0  9992", "line2": "2 43107  54.5080 309.2532 0002550  71.4295 288.5965  1.86232295 53642"}}, "geometry": {"type": "Point", "coordinates": [-71.45774198234706, -26.31568793424781]}}, {"type": "Feature", "properties": {"norad_id": 43108, "name": "BEIDOU-3 M8 (C28)", "group": "beidou", "lat": 3.25927639783643, "lon": -48.486311664410934, "alt_km": 21528.060381038984, "timestamp": "2025-12-01T03:58:49.201821+00:00", "meta": {"OBJECT_NAME": "BEIDOU-3 M8 (C28)", "OBJECT_ID": "2018-003B", "EPOCH": "2025-11-30T02:03:48.119904", "MEAN_MOTION": 1.86230785, "ECCENTRICITY": 0.00048391, "INCLINATION": 54.5009, "RA_OF_ASC_NODE": 309.238, "ARG_OF_PERICENTER": 273.2994, "MEAN_ANOMALY": 86.6436, "EPHEMERIS_TYPE": 0, "CLASSIFICATION_TYPE": "U", "NORAD_CAT_ID": 43108, "ELEMENT_SET_NO": 999, "REV_AT_EPOCH": 5365, "BSTAR": 0, "MEAN_MOTION_DOT": -5.1e-07, "MEAN_MOTION_DDOT": 0, "GROUP": "beidou"}, "tle": {"line1": "1 43108U 18003B   25334.08597361 -.00000051  00000+0  00000+0 0  9999", "line2": "2 43108  54.5009 309.2380 0004839 273.2994  86.6436  1.86230785 53658"}}, "geometry": {"type": "Point", "coordinates": [-48.486311664410934, 3.25927639783643]}}]}